OBJECT_NAME,OBJECT_ID,EPOCH,MEAN_MOTION,ECCENTRICITY,INCLINATION,RA_OF_ASC_NODE,ARG_OF_PERICENTER,MEAN_ANOMALY,EPHEMERIS_TYPE,CLASSIFICATION_TYPE,NORAD_CAT_ID,ELEMENT_SET_NO,REV_AT_EPOCH,BSTAR,MEAN_MOTION_DOT,MEAN_MOTION_DDOT
KUZGTU 1 (RS47S),2023-091AV,2026-07-11T11:48:34.955136,15.30416432,.0010478,97.5058,257.2264,19.3903,340.7734,0,U,57217,999,16809,.23467E-3,.6835E-4,0
SONATE-2,2024-043Q,2026-07-11T09:22:27.231744,15.60605233,.0006813,97.5544,344.3084,117.4206,242.7744,0,U,59112,999,13166,.35468E-3,.29289E-3,0
MESAT1,2024-125G,2026-07-11T12:54:30.557088,15.66089402,.0010959,97.2262,50.6212,124.2461,235.9839,0,U,60209,999,11337,.39794E-3,.40879E-3,0
OOV-CUBE (TUBSAT-30),2024-128F,2026-07-11T09:47:33.954432,15.02864718,.0041583,61.9942,141.1095,139.1306,221.2916,0,U,60240,999,10975,.10331E-3,.1201E-4,0
COLIBRI-S (RS67S),2024-199M,2026-07-11T11:49:46.749216,15.48742494,.0008503,97.2969,66.5817,175.2643,184.8690,0,U,61746,999,14117,.26064E-3,.13909E-3,0
HORS 3 (RS81S),2024-199U,2026-07-11T12:43:05.473344,15.56716341,.000666,97.2947,68.8819,167.0287,193.1141,0,U,61753,999,14134,.33141E-3,.23618E-3,0
HORS 4 (RS82S),2024-199V,2026-07-11T11:25:49.097280,15.62107018,.0006597,97.2891,70.1963,158.9264,201.2267,0,U,61754,999,14143,.40893E-3,.35826E-3,0
SIT-2086,2024-199AF,2026-07-11T11:21:43.104384,15.54825934,.0007779,97.2906,69.2161,155.8204,204.3417,0,U,61764,999,13820,.36789E-3,.24476E-3,0
HYPERVIEW 1G (RS66S),2024-199AP,2026-07-11T07:49:27.002208,15.83991669,.000817,97.2810,73.3959,154.6573,205.5099,0,U,61772,999,13848,.70909E-3,.160477E-2,0
ALTAIR (RS65S),2024-199AW,2026-07-11T12:31:54.421824,15.37457343,.0011633,97.3006,61.7164,210.4051,149.6521,0,U,61779,999,14085,.16192E-3,.5877E-4,0
ASRTU-1 (AO-123),2024-199AY,2026-07-11T12:46:22.341792,15.36019383,.0012622,97.2975,60.9855,214.5911,145.4513,0,U,61781,999,13766,.13727E-3,.4744E-4,0
SAMSAT-IONOSPHERE (RS75S),2024-199BB,2026-07-11T10:54:42.789024,15.59863035,.0008784,97.2913,68.9471,172.5129,187.6260,0,U,61784,999,14134,.43293E-3,.34831E-3,0
RTU MIREA 1 (RS51S),2024-199BC,2026-07-11T11:38:15.074016,15.63934702,.0008865,97.2900,69.9453,166.9970,193.1519,0,U,61785,999,13826,.44593E-3,.42031E-3,0
TEVEL2-4,2025-052D,2026-07-11T11:55:36.544800,15.35479077,.0003929,97.3880,88.9397,59.2750,300.8880,0,U,63213,999,7384,.31438E-3,.10763E-3,0
TEVEL2-5,2025-052E,2026-07-08T15:39:31.999680,15.35218873,.00041301,97.3873,86.0291,66.2017,293.9660,0,U,63214,999,7340,.41324257E-3,.14062E-3,0
TEVEL2-6,2025-052F,2026-07-09T18:33:36.497376,15.35215103,.00039681,97.3877,87.1376,66.9512,293.2149,0,U,63215,999,7357,.40183524E-3,.13669E-3,0
TEVEL2-1,2025-052H,2026-07-11T02:44:51.808992,15.34682944,.0004514,97.3852,88.0769,68.0772,292.0951,0,U,63217,999,7376,.34032E-3,.11367E-3,0
TEVEL2-3,2025-052J,2026-07-11T04:09:42.827040,15.34746846,.0004286,97.3859,88.1615,69.2131,290.9570,0,U,63218,999,7377,.32943E-3,.11022E-3,0
TEVEL2-2,2025-052K,2026-07-11T12:08:25.751904,15.34702342,.000452,97.3854,88.4719,67.8637,292.3086,0,U,63219,999,7382,.31633E-3,.10565E-3,0
OTP-2,2025-052AB,2026-07-10T00:12:33.329376,15.24294167,.00082851,97.3845,83.0996,85.2441,274.9742,0,U,63235,999,7334,.20316794E-3,.4897E-4,0
TEVEL2-9,2025-052AD,2026-07-08T15:25:07.851072,15.32589963,.0008135,97.3915,84.9331,74.7614,285.4527,0,U,63237,999,7331,.40917582E-3,.12819E-3,0
TEVEL2-7,2025-052AE,2026-07-11T04:03:31.531680,15.32336153,.0008053,97.3917,87.3624,67.9064,292.3032,0,U,63238,999,7369,.31287E-3,.9701E-4,0
TEVEL2-8,2025-052AF,2026-07-11T04:15:44.551008,15.32321799,.0008071,97.3917,87.3470,68.8547,291.3557,0,U,63239,999,7369,.32578E-3,.10101E-3,0
INNOSAT 16 (RS92S7),2025-155C,2026-07-11T12:47:31.391808,15.25713867,.0012484,97.4575,159.5892,99.3519,260.9131,0,U,64878,999,8438,.14431E-3,.3612E-4,0
GEOSCAN 6 (RS92S6),2025-155D,2026-07-11T12:07:08.596704,15.30608010,.0009994,97.4564,161.1603,92.4486,267.7899,0,U,64879,999,8448,.21422E-3,.6269E-4,0
GEOSCAN 1 (RS92S1),2025-155E,2026-07-11T11:56:29.825088,15.31251414,.0009959,97.4559,161.3226,92.6826,267.5555,0,U,64880,999,8449,.21585E-3,.6446E-4,0
239ALFEROV (RS61S),2025-155F,2026-07-11T11:54:58.978080,15.33602566,.0009649,97.4559,161.9674,92.2145,268.0202,0,U,64881,999,8453,.27698E-3,.8931E-4,0
GEOSCAN 2 (RS92S2),2025-155Q,2026-07-11T11:41:22.277760,15.31509714,.0009192,97.4558,161.4741,82.7279,277.5006,0,U,64890,999,8450,.21637E-3,.6512E-4,0
GEOSCAN 5 (RS92S5),2025-155R,2026-07-11T11:32:01.275648,15.33909116,.0008677,97.4551,162.0980,96.3689,263.8542,0,U,64891,999,8454,.27289E-3,.8881E-4,0
GEOSCAN 4 (RS92S4),2025-155S,2026-07-11T12:39:32.992416,15.34076869,.000863,97.4555,162.2010,96.5130,263.7096,0,U,64892,999,8455,.27811E-3,.9101E-4,0
