KUZGTU 1 (RS47S)        
1 57217U 23091AV  26192.49207124  .00006835  00000+0  23467-3 0  9992
2 57217  97.5058 257.2264 0010478  19.3903 340.7734 15.30416432168092
SONATE-2                
1 59112U 24043Q   26192.39059296  .00029289  00000+0  35468-3 0  9992
2 59112  97.5544 344.3084 0006813 117.4206 242.7744 15.60605233131667
MESAT1                  
1 60209U 24125G   26192.53785367  .00040879  00000+0  39794-3 0  9997
2 60209  97.2262  50.6212 0010959 124.2461 235.9839 15.66089402113372
OOV-CUBE (TUBSAT-30)    
1 60240U 24128F   26192.40803188  .00001201  00000+0  10331-3 0  9995
2 60240  61.9942 141.1095 0041583 139.1306 221.2916 15.02864718109757
COLIBRI-S (RS67S)       
1 61746U 24199M   26192.49290219  .00013909  00000+0  26064-3 0  9997
2 61746  97.2969  66.5817 0008503 175.2643 184.8690 15.48742494141173
HORS 3 (RS81S)          
1 61753U 24199U   26192.52992446  .00023618  00000+0  33141-3 0  9992
2 61753  97.2947  68.8819 0006660 167.0287 193.1141 15.56716341141343
HORS 4 (RS82S)          
1 61754U 24199V   26192.47626270  .00035826  00000+0  40893-3 0  9992
2 61754  97.2891  70.1963 0006597 158.9264 201.2267 15.62107018141433
SIT-2086                
1 61764U 24199AF  26192.47341556  .00024476  00000+0  36789-3 0  9992
2 61764  97.2906  69.2161 0007779 155.8204 204.3417 15.54825934138200
HYPERVIEW 1G (RS66S)    
1 61772U 24199AP  26192.32600697  .00160477  00000+0  70909-3 0  9993
2 61772  97.2810  73.3959 0008170 154.6573 205.5099 15.83991669138486
ALTAIR (RS65S)          
1 61779U 24199AW  26192.52215766  .00005877  00000+0  16192-3 0  9997
2 61779  97.3006  61.7164 0011633 210.4051 149.6521 15.37457343140857
ASRTU-1 (AO-123)        
1 61781U 24199AY  26192.53220303  .00004744  00000+0  13727-3 0  9997
2 61781  97.2975  60.9855 0012622 214.5911 145.4513 15.36019383137668
SAMSAT-IONOSPHERE (RS7*)
1 61784U 24199BB  26192.45466191  .00034831  00000+0  43293-3 0  9999
2 61784  97.2913  68.9471 0008784 172.5129 187.6260 15.59863035141346
RTU MIREA 1 (RS51S)     
1 61785U 24199BC  26192.48489669  .00042031  00000+0  44593-3 0  9993
2 61785  97.2900  69.9453 0008865 166.9970 193.1519 15.63934702138266
TEVEL2-4                
1 63213U 25052D   26192.49695075  .00010763  00000+0  31438-3 0  9992
2 63213  97.3880  88.9397 0003929  59.2750 300.8880 15.35479077 73844
TEVEL2-5                
1 63214U 25052E   26189.65245370  .00014062  00000+0  41324-3 0  9997
2 63214  97.3873  86.0291 0004130  66.2017 293.9660 15.35218873 73403
TEVEL2-6                
1 63215U 25052F   26190.77333909  .00013669  00000+0  40184-3 0  9994
2 63215  97.3877  87.1376 0003968  66.9512 293.2149 15.35215103 73575
TEVEL2-1                
1 63217U 25052H   26192.11448853  .00011367  00000+0  34032-3 0  9999
2 63217  97.3852  88.0769 0004514  68.0772 292.0951 15.34682944 73764
TEVEL2-3                
1 63218U 25052J   26192.17341235  .00011022  00000+0  32943-3 0  9999
2 63218  97.3859  88.1615 0004286  69.2131 290.9570 15.34746846 73778
TEVEL2-2                
1 63219U 25052K   26192.50585361  .00010565  00000+0  31633-3 0  9993
2 63219  97.3854  88.4719 0004520  67.8637 292.3086 15.34702342 73825
OTP-2                   
1 63235U 25052AB  26191.00871909  .00004897  00000+0  20317-3 0  9999
2 63235  97.3845  83.0996 0008285  85.2441 274.9742 15.24294167 73342
TEVEL2-9                
1 63237U 25052AD  26189.64245198  .00012819  00000+0  40918-3 0  9995
2 63237  97.3915  84.9331 0008135  74.7614 285.4527 15.32589963 73319
TEVEL2-7                
1 63238U 25052AE  26192.16911495  .00009701  00000+0  31287-3 0  9992
2 63238  97.3917  87.3624 0008053  67.9064 292.3032 15.32336153 73696
TEVEL2-8                
1 63239U 25052AF  26192.17759897  .00010101  00000+0  32578-3 0  9990
2 63239  97.3917  87.3470 0008071  68.8547 291.3557 15.32321799 73693
INNOSAT 16 (RS92S7)     
1 64878U 25155C   26192.53300222  .00003612  00000+0  14431-3 0  9995
2 64878  97.4575 159.5892 0012484  99.3519 260.9131 15.25713867 84386
GEOSCAN 6 (RS92S6)      
1 64879U 25155D   26192.50496061  .00006269  00000+0  21422-3 0  9999
2 64879  97.4564 161.1603 0009994  92.4486 267.7899 15.30608010 84489
GEOSCAN 1 (RS92S1)      
1 64880U 25155E   26192.49756742  .00006446  00000+0  21585-3 0  9991
2 64880  97.4559 161.3226 0009959  92.6826 267.5555 15.31251414 84490
239ALFEROV (RS61S)      
1 64881U 25155F   26192.49651595  .00008931  00000+0  27698-3 0  9994
2 64881  97.4559 161.9674 0009649  92.2145 268.0202 15.33602566 84530
GEOSCAN 2 (RS92S2)      
1 64890U 25155Q   26192.48706340  .00006512  00000+0  21637-3 0  9992
2 64890  97.4558 161.4741 0009192  82.7279 277.5006 15.31509714 84507
GEOSCAN 5 (RS92S5)      
1 64891U 25155R   26192.48057032  .00008881  00000+0  27289-3 0  9990
2 64891  97.4551 162.0980 0008677  96.3689 263.8542 15.33909116 84545
GEOSCAN 4 (RS92S4)      
1 64892U 25155S   26192.52746519  .00009101  00000+0  27811-3 0  9998
2 64892  97.4555 162.2010 0008630  96.5130 263.7096 15.34076869 84553
